district,schoolName,schoolAddress,medianResult,unit,lead,status,city,county,latitude,longitude
Ontario-Montclair School District,Arroyo Elementary School,"1700 E. 7th Street, Ontario CA 91764",NA,NA,NA,exempt,Ontario,San Bernardino County,34.08841,-117.616091
Ontario-Montclair School District,Berlyn Elementary School,"1320 N. Berlyn Ave, Ontario CA 91764",NA,NA,NA,exempt,Ontario,San Bernardino County,34.0819986666667,-117.638928
Ontario-Montclair School District,Bon View Elementary School,"2121 S. Bon View Ave, Ontario CA 91761",NA,NA,NA,exempt,Ontario,San Bernardino County,34.0349537647059,-117.6371
Ontario-Montclair School District,Buena Vista Elementary School,"5685 San Bernardino St, Montclair CA 91763",NA,NA,NA,exempt,Montclair,San Bernardino County,34.077606,-117.684478
Ontario-Montclair School District,Central Language Academy,"415 East G St, Ontario CA 91764",NA,NA,NA,exempt,Ontario,San Bernardino County,34.070761,-117.646996142857
Ontario-Montclair School District,Corona Elementary School,"1140 N. Corona Ave, Ontario CA 91764",NA,NA,NA,exempt,Ontario,San Bernardino County,34.081399,-117.615417
Ontario-Montclair School District,De Anza Middle School,"1450 S. Sultana Ave, Ontario CA 91761",NA,NA,NA,exempt,Ontario,San Bernardino County,34.0473970593529,-117.64613362807
Ontario-Montclair School District,Del Norte Elementay School,"850 N. Del Norte, Ontario CA 91764",NA,NA,NA,exempt,Ontario,San Bernardino County,34.0293105,-117.6259666
Ontario-Montclair School District,Edison Academy,"515 E. 6th St, Ontario CA 91764",NA,NA,NA,exempt,Ontario,San Bernardino County,34.0853003055704,-117.645507986488
Ontario-Montclair School District,El Camino Elementary School,"1525 W. 5th St, Ontario CA 91762",NA,NA,NA,exempt,Ontario,San Bernardino County,34.0815515463302,-117.679269810341
Ontario-Montclair School District,Elderberry Elementary School,"950 N. Elderberry Ave, Ontario CA  91762",NA,NA,NA,exempt,Ontario,San Bernardino County,34.0751435745354,-117.67474809373
Ontario-Montclair School District,Euclid Elementary School,"1120 S. Euclid Ave, Ontario CA 91762",NA,NA,NA,exempt,Ontario,San Bernardino County,34.0522442244898,-117.65088244898
Ontario-Montclair School District,Hawthorne Elementary School,"705 W. Hawthorne St, Ontario CA 91762",NA,NA,NA,exempt,Ontario,San Bernardino County,34.0832647856738,-117.66190351446
Ontario-Montclair School District,Hawthorne Elementary School,"705 W. Hawthorne St, Ontario CA 91762",NA,NA,NA,exempt,Ontario,San Bernardino County,34.0832647856738,-117.66190351446
Ontario-Montclair School District,Haynes Elementary School,"715 W. Francis St, Ontario CA 91762",NA,NA,NA,exempt,Ontario,San Bernardino County,34.0409547215119,-117.66186454809
Ontario-Montclair School District,Howard Elementary School,"4650 Howard St, Montclair CA 91763",NA,NA,NA,exempt,Montclair,San Bernardino County,34.052286,-117.703087
Ontario-Montclair School District,Kingsley Elementary School,"5625 Kingsley St, Montclair CA 91763",NA,NA,NA,exempt,Montclair,San Bernardino County,34.066694,-117.684197
Ontario-Montclair School District,Lehigh Elementary School,"10200 Lehigh St, Montclair CA 91763",NA,NA,NA,exempt,Montclair,San Bernardino County,34.0681969269074,-117.709202014105
Ontario-Montclair School District,Lincoln Elementary School,"440 N. Allyn Ave, Ontario CA 91764",NA,NA,NA,exempt,Ontario,San Bernardino County,34.0675812448619,-117.637153269613
Ontario-Montclair School District,Linda Vista,"1556 S. Sultana, Ontario CA  91761",NA,NA,NA,exempt,,,,
Ontario-Montclair School District,Mariposa Elementary School,"1605 East D St, Ontario CA 91764",NA,NA,NA,exempt,Ontario,San Bernardino County,34.0671991276943,-117.61792972353
Ontario-Montclair School District,Mission Elementary School,"5555 Howard St, Ontario CA  91762",NA,NA,NA,exempt,,,,
Ontario-Montclair School District,Monte Vista Elementary School,"4900 Orchard St, Montclair CA 91763",NA,NA,NA,exempt,Montclair,San Bernardino County,34.070486,-117.698149
Ontario-Montclair School District,Monte Vista Elementary School,"4900 Orchard St, Montclair CA 91763",NA,NA,NA,exempt,Montclair,San Bernardino County,34.070486,-117.698149
Ontario-Montclair School District,Montera Elementary School,"4825 Bandera, Montclair CA 91763",NA,NA,NA,exempt,Montclair,San Bernardino County,34.0648678800876,-117.700151490453
Ontario-Montclair School District,Moreno Elementary School,"4825 Moreno St, Montclair CA 91763",NA,NA,NA,exempt,Montclair,San Bernardino County,34.0886375708033,-117.699483045073
Ontario-Montclair School District,Moreno Elementary School,"4825 Moreno St, Montclair CA 91763",NA,NA,NA,exempt,Montclair,San Bernardino County,34.0886375708033,-117.699483045073
Ontario-Montclair School District,Oaks Middle School,"1221 S. Oaks Ave, Ontario CA 91762",NA,NA,NA,exempt,Ontario,San Bernardino County,34.0495420957453,-117.676235113704
Ontario-Montclair School District,Oaks Middle School,"1221 S. Oaks Ave, Ontario CA 91762",NA,NA,NA,exempt,Ontario,San Bernardino County,34.0495420957453,-117.676235113704
Ontario-Montclair School District,Ramona Elementary School,"4225 Howard St, Montclair CA 91763",NA,NA,NA,exempt,Montclair,San Bernardino County,34.052144,-117.712818857143
Ontario-Montclair School District,Ramona Elementary School,"4225 Howard St, Montclair CA 91763",NA,NA,NA,exempt,Montclair,San Bernardino County,34.052144,-117.712818857143
Ontario-Montclair School District,Serrano Middle School,"4725 San Jose St, Montclair CA 91763",NA,NA,NA,exempt,Montclair,San Bernardino County,34.085101,-117.704224
Ontario-Montclair School District,Serrano Middle School,"4725 San Jose St, Montclair CA 91763",NA,NA,NA,exempt,Montclair,San Bernardino County,34.085101,-117.704224
Ontario-Montclair School District,Sultana Elementary School,"1845 S. Sultana Ave, Ontario CA 91761",NA,NA,NA,exempt,Ontario,San Bernardino County,34.0397870643923,-117.646037441553
Ontario-Montclair School District,Sultana Elementary School,"1845 S. Sultana Ave, Ontario CA 91761",NA,NA,NA,exempt,Ontario,San Bernardino County,34.0397870643923,-117.646037441553
Ontario-Montclair School District,Vernon Middle School,"9775 Vernon Ave, Montclair CA 91763",NA,NA,NA,exempt,Montclair,San Bernardino County,34.077053530816,-117.685085623312
Ontario-Montclair School District,Vernon Middle School,"9775 Vernon Ave, Montclair CA 91763",NA,NA,NA,exempt,Montclair,San Bernardino County,34.077053530816,-117.685085623312
Ontario-Montclair School District,Vina Danks Middle School,"1020 N. Vine Ave, Ontario CA 91762",NA,NA,NA,exempt,Ontario,San Bernardino County,34.0764971707487,-117.655881990523
Ontario-Montclair School District,Vina Danks Middle School,"1020 N. Vine Ave, Ontario CA 91762",NA,NA,NA,exempt,Ontario,San Bernardino County,34.0764971707487,-117.655881990523
Ontario-Montclair School District,Vineyard STEM,"1500 E. 6th St, Ontario CA 91764",NA,NA,NA,exempt,Ontario,San Bernardino County,34.0848179759744,-117.620830124932
Ontario-Montclair School District,Vineyard STEM,"1500 E. 6th St, Ontario CA 91764",NA,NA,NA,exempt,Ontario,San Bernardino County,34.0848179759744,-117.620830124932
Ontario-Montclair School District,Vista Grande Elementary School,"1390 W. Francis, Ontario CA 91762",NA,NA,NA,exempt,,,,
Ontario-Montclair School District,Vista Grande Elementary School,"1390 W. Francis, Ontario CA 91762",NA,NA,NA,exempt,,,,
Ontario-Montclair School District,Wiltsey Middle School,"1450 East G St, Ontario CA 91764",NA,NA,NA,exempt,Ontario,San Bernardino County,34.070634,-117.620613
Ontario-Montclair School District,Wiltsey Middle School,"1450 East G St, Ontario CA 91764",NA,NA,NA,exempt,Ontario,San Bernardino County,34.070634,-117.620613
